start=new Date('%Y-%m-57T00:00:00.000Z').valueOf();
sats=[{"DECAY_DATE":null,"LAUNCH_DATE":"2021-03-11","ARG_OF_PERICENTER":"46.9666","MEAN_ELEMENT_THEORY":"SGP4","OBJECT_NAME":"STARLINK-2446","BSTAR":"0.00008473900000","MEAN_MOTION_DOT":"0.00000981","RCS_SIZE":"LARGE","INCLINATION":"53.0551","NORAD_CAT_ID":"47844","ELEMENT_SET_NO":"999","REV_AT_EPOCH":"2621","GP_ID":"183186571","CLASSIFICATION_TYPE":"U","MEAN_MOTION":"15.06404273","TIME_SYSTEM":"UTC","ECCENTRICITY":"0.00018670","CENTER_NAME":"EARTH","REF_FRAME":"TEME","SEMIMAJOR_AXIS":"6925.335","RA_OF_ASC_NODE":"148.9658","PERIOD":"95.592","TLE_LINE2":"2 47844  53.0551 148.9658 0001867  46.9666 313.1479 15.06404273 26219","EPHEMERIS_TYPE":"0","MEAN_ANOMALY":"313.1479","PERIAPSIS":"545.908","OBJECT_ID":"2021-018BK","FILE":"3100831","APOAPSIS":"548.493","EPOCH":"2021-08-21T12:04:40.093248","TLE_LINE1":"1 47844U 21018BK  21233.50324182  .00000981  00000-0  84739-4 0  9998","COUNTRY_CODE":"US","MEAN_MOTION_DDOT":"0.0000000000000","OBJECT_TYPE":"PAYLOAD","SITE":"AFETR"},{"RCS_SIZE":"LARGE","MEAN_MOTION_DOT":"0.00001016","INCLINATION":"53.0565","NORAD_CAT_ID":"47845","ELEMENT_SET_NO":"999","REV_AT_EPOCH":"2618","DECAY_DATE":null,"LAUNCH_DATE":"2021-03-11","ARG_OF_PERICENTER":"95.2119","MEAN_ELEMENT_THEORY":"SGP4","BSTAR":"0.00008707900000","OBJECT_NAME":"STARLINK-2453","TLE_LINE2":"2 47845  53.0565 150.0857 0001626  95.2119 264.9056 15.06403712 26180","EPHEMERIS_TYPE":"0","MEAN_ANOMALY":"264.9056","PERIAPSIS":"546.076","OBJECT_ID":"2021-018BL","FILE":"3100831","APOAPSIS":"548.328","TLE_LINE1":"1 47845U 21018BL  21233.25628632  .00001016  00000-0  87079-4 0  9998","EPOCH":"2021-08-21T06:09:03.138048","COUNTRY_CODE":"US","MEAN_MOTION_DDOT":"0.0000000000000","SITE":"AFETR","OBJECT_TYPE":"PAYLOAD","GP_ID":"183187321","CLASSIFICATION_TYPE":"U","MEAN_MOTION":"15.06403712","TIME_SYSTEM":"UTC","ECCENTRICITY":"0.00016260","CENTER_NAME":"EARTH","REF_FRAME":"TEME","SEMIMAJOR_AXIS":"6925.337","PERIOD":"95.592","RA_OF_ASC_NODE":"150.0857"},{"REV_AT_EPOCH":"2623","RCS_SIZE":"LARGE","MEAN_MOTION_DOT":"0.00000944","INCLINATION":"53.0564","NORAD_CAT_ID":"47846","ELEMENT_SET_NO":"999","ARG_OF_PERICENTER":"48.4910","MEAN_ELEMENT_THEORY":"SGP4","BSTAR":"0.00008228200000","OBJECT_NAME":"STARLINK-2456","DECAY_DATE":null,"LAUNCH_DATE":"2021-03-11","TLE_LINE1":"1 47846U 21018BM  21233.25259939  .00000944  00000-0  82282-4 0  9999","EPOCH":"2021-08-21T06:03:44.587296","COUNTRY_CODE":"US","MEAN_MOTION_DDOT":"0.0000000000000","OBJECT_TYPE":"PAYLOAD","SITE":"AFETR","TLE_LINE2":"2 47846  53.0564 150.1011 0001912  48.4910 311.6243 15.06403971 26231","EPHEMERIS_TYPE":"0","MEAN_ANOMALY":"311.6243","PERIAPSIS":"545.877","OBJECT_ID":"2021-018BM","FILE":"3100831","APOAPSIS":"548.526","REF_FRAME":"TEME","SEMIMAJOR_AXIS":"6925.336","PERIOD":"95.592","RA_OF_ASC_NODE":"150.1011","GP_ID":"183186069","CLASSIFICATION_TYPE":"U","MEAN_MOTION":"15.06403971","TIME_SYSTEM":"UTC","ECCENTRICITY":"0.00019120","CENTER_NAME":"EARTH"},{"MEAN_MOTION_DDOT":"0.0000000000000","OBJECT_TYPE":"PAYLOAD","SITE":"AFETR","EPOCH":"2021-08-21T06:10:24.111264","TLE_LINE1":"1 47860U 21021A   21233.25722351  .00000903  00000-0  79496-4 0  9990","COUNTRY_CODE":"US","PERIAPSIS":"546.107","OBJECT_ID":"2021-021A","FILE":"3100831","APOAPSIS":"548.355","TLE_LINE2":"2 47860  53.0565 180.0630 0001623  81.2122 278.9051 15.06394199 25531","EPHEMERIS_TYPE":"0","MEAN_ANOMALY":"278.9051","PERIOD":"95.593","RA_OF_ASC_NODE":"180.0630","REF_FRAME":"TEME","SEMIMAJOR_AXIS":"6925.366","CLASSIFICATION_TYPE":"U","MEAN_MOTION":"15.06394199","TIME_SYSTEM":"UTC","ECCENTRICITY":"0.00016230","CENTER_NAME":"EARTH","GP_ID":"183187072","REV_AT_EPOCH":"2553","INCLINATION":"53.0565","NORAD_CAT_ID":"47860","ELEMENT_SET_NO":"999","MEAN_MOTION_DOT":"0.00000903","RCS_SIZE":"LARGE","MEAN_ELEMENT_THEORY":"SGP4","BSTAR":"0.00007949600000","OBJECT_NAME":"STARLINK-2258","ARG_OF_PERICENTER":"81.2122","LAUNCH_DATE":"2021-03-14","DECAY_DATE":null},{"ECCENTRICITY":"0.00021530","CENTER_NAME":"EARTH","MEAN_MOTION":"15.06402754","TIME_SYSTEM":"UTC","CLASSIFICATION_TYPE":"U","GP_ID":"183186823","RA_OF_ASC_NODE":"163.7944","PERIOD":"95.592","SEMIMAJOR_AXIS":"6925.340","REF_FRAME":"TEME","FILE":"3100831","APOAPSIS":"548.696","OBJECT_ID":"2021-021B","PERIAPSIS":"545.714","MEAN_ANOMALY":"282.4569","EPHEMERIS_TYPE":"0","TLE_LINE2":"2 47861  53.0566 163.7944 0002153  77.6661 282.4569 15.06402754 25895","OBJECT_TYPE":"PAYLOAD","SITE":"AFETR","MEAN_MOTION_DDOT":"0.0000000000000","COUNTRY_CODE":"US","TLE_LINE1":"1 47861U 21021B   21233.54056989  .00001017  00000-0  87159-4 0  9992","EPOCH":"2021-08-21T12:58:25.238496","LAUNCH_DATE":"2021-03-14","DECAY_DATE":null,"BSTAR":"0.00008715900000","OBJECT_NAME":"STARLINK-2280","MEAN_ELEMENT_THEORY":"SGP4","ARG_OF_PERICENTER":"77.6661","ELEMENT_SET_NO":"999","NORAD_CAT_ID":"47861","INCLINATION":"53.0566","RCS_SIZE":"LARGE","MEAN_MOTION_DOT":"0.00001017","REV_AT_EPOCH":"2589"},{"SITE":"AFETR","OBJECT_TYPE":"PAYLOAD","MEAN_MOTION_DDOT":"0.0000000000000","COUNTRY_CODE":"US","TLE_LINE1":"1 47862U 21021C   21233.52074880  .00001037  00000-0  88478-4 0  9998","EPOCH":"2021-08-21T12:29:52.696320","APOAPSIS":"548.584","FILE":"3100831","OBJECT_ID":"2021-021C","PERIAPSIS":"545.810","MEAN_ANOMALY":"283.5920","EPHEMERIS_TYPE":"0","TLE_LINE2":"2 47862  53.0560 158.8833 0002003  76.5292 283.5920 15.06405464 25955","PERIOD":"95.592","RA_OF_ASC_NODE":"158.8833","SEMIMAJOR_AXIS":"6925.332","REF_FRAME":"TEME","ECCENTRICITY":"0.00020030","CENTER_NAME":"EARTH","MEAN_MOTION":"15.06405464","TIME_SYSTEM":"UTC","CLASSIFICATION_TYPE":"U","GP_ID":"183185571","REV_AT_EPOCH":"2595","ELEMENT_SET_NO":"999","NORAD_CAT_ID":"47862","INCLINATION":"53.0560","MEAN_MOTION_DOT":"0.00001037","RCS_SIZE":"LARGE","BSTAR":"0.00008847800000","OBJECT_NAME":"STARLINK-2291","MEAN_ELEMENT_THEORY":"SGP4","ARG_OF_PERICENTER":"76.5292","LAUNCH_DATE":"2021-03-14","DECAY_DATE":null},{"LAUNCH_DATE":"2021-03-14","DECAY_DATE":null,"OBJECT_NAME":"STARLINK-2293","BSTAR":"-0.00004799500000","MEAN_ELEMENT_THEORY":"SGP4","ARG_OF_PERICENTER":"74.6009","ELEMENT_SET_NO":"999","INCLINATION":"53.0548","NORAD_CAT_ID":"47863","MEAN_MOTION_DOT":"-0.00000996","RCS_SIZE":"LARGE","REV_AT_EPOCH":"2579","TIME_SYSTEM":"UTC","MEAN_MOTION":"15.06392169","ECCENTRICITY":"0.00020370","CENTER_NAME":"EARTH","CLASSIFICATION_TYPE":"U","GP_ID":"183186321","RA_OF_ASC_NODE":"169.6712","PERIOD":"95.593","REF_FRAME":"TEME","SEMIMAJOR_AXIS":"6925.373","OBJECT_ID":"2021-021D","FILE":"3100831","APOAPSIS":"548.648","PERIAPSIS":"545.827","MEAN_ANOMALY":"285.5205","TLE_LINE2":"2 47863  53.0548 169.6712 0002037  74.6009 285.5205 15.06392169 25797","EPHEMERIS_TYPE":"0","OBJECT_TYPE":"PAYLOAD","SITE":"AFETR","MEAN_MOTION_DDOT":"0.0000000000000","COUNTRY_CODE":"US","EPOCH":"2021-08-21T08:19:06.711744","TLE_LINE1":"1 47863U 21021D   21233.34660546 -.00000996  00000-0 -47995-4 0  9993"},{"ARG_OF_PERICENTER":"81.1499","MEAN_ELEMENT_THEORY":"SGP4","OBJECT_NAME":"STARLINK-2304","BSTAR":"0.00007652500000","DECAY_DATE":null,"LAUNCH_DATE":"2021-03-14","REV_AT_EPOCH":"2593","MEAN_MOTION_DOT":"0.00000858","RCS_SIZE":"LARGE","INCLINATION":"53.0558","NORAD_CAT_ID":"47864","ELEMENT_SET_NO":"999","REF_FRAME":"TEME","SEMIMAJOR_AXIS":"6925.339","PERIOD":"95.592","RA_OF_ASC_NODE":"158.8883","GP_ID":"183186573","CLASSIFICATION_TYPE":"U","MEAN_MOTION":"15.06403242","TIME_SYSTEM":"UTC","CENTER_NAME":"EARTH","ECCENTRICITY":"0.00020990","TLE_LINE1":"1 47864U 21021E   21233.51981204  .00000858  00000-0  76525-4 0  9996","EPOCH":"2021-08-21T12:28:31.760256","COUNTRY_CODE":"US","MEAN_MOTION_DDOT":"0.0000000000000","SITE":"AFETR","OBJECT_TYPE":"PAYLOAD","TLE_LINE2":"2 47864  53.0558 158.8883 0002099  81.1499 278.9728 15.06403242 25939","EPHEMERIS_TYPE":"0","MEAN_ANOMALY":"278.9728","PERIAPSIS":"545.750","OBJECT_ID":"2021-021E","APOAPSIS":"548.657","FILE":"3100831"},{"SEMIMAJOR_AXIS":"6925.353","REF_FRAME":"TEME","PERIOD":"95.592","RA_OF_ASC_NODE":"168.8830","GP_ID":"183187323","CLASSIFICATION_TYPE":"U","CENTER_NAME":"EARTH","ECCENTRICITY":"0.00018420","TIME_SYSTEM":"UTC","MEAN_MOTION":"15.06398624","EPOCH":"2021-08-21T12:28:33.906432","TLE_LINE1":"1 47865U 21021F   21233.51983688  .00001320  00000-0  10752-3 0  9999","COUNTRY_CODE":"US","MEAN_MOTION_DDOT":"0.0000000000000","OBJECT_TYPE":"PAYLOAD","SITE":"AFETR","EPHEMERIS_TYPE":"0","TLE_LINE2":"2 47865  53.0547 168.8830 0001842  72.2171 287.9019 15.06398624 25923","MEAN_ANOMALY":"287.9019","PERIAPSIS":"545.942","FILE":"3100831","APOAPSIS":"548.493","OBJECT_ID":"2021-021F","ARG_OF_PERICENTER":"72.2171","MEAN_ELEMENT_THEORY":"SGP4","BSTAR":"0.00010752000000","OBJECT_NAME":"STARLINK-2310","DECAY_DATE":null,"LAUNCH_DATE":"2021-03-14","REV_AT_EPOCH":"2592","RCS_SIZE":"LARGE","MEAN_MOTION_DOT":"0.00001320","NORAD_CAT_ID":"47865","INCLINATION":"53.0547","ELEMENT_SET_NO":"999"},{"MEAN_ELEMENT_THEORY":"SGP4","BSTAR":"0.00008737600000","OBJECT_NAME":"STARLINK-2320","ARG_OF_PERICENTER":"81.9849","LAUNCH_DATE":"2021-03-14","DECAY_DATE":null,"REV_AT_EPOCH":"2597","INCLINATION":"53.0553","NORAD_CAT_ID":"47866","ELEMENT_SET_NO":"999","MEAN_MOTION_DOT":"0.00001020","RCS_SIZE":"MEDIUM","RA_OF_ASC_NODE":"168.8688","PERIOD":"95.592","REF_FRAME":"TEME","SEMIMAJOR_AXIS":"6925.356","CLASSIFICATION_TYPE":"U","MEAN_MOTION":"15.06397419","TIME_SYSTEM":"UTC","ECCENTRICITY":"0.00017100","CENTER_NAME":"EARTH","GP_ID":"183186071","MEAN_MOTION_DDOT":"0.0000000000000","SITE":"AFETR","OBJECT_TYPE":"PAYLOAD","EPOCH":"2021-08-21T12:33:52.401024","TLE_LINE1":"1 47866U 21021G   21233.52352316  .00001020  00000-0  87376-4 0  9993","COUNTRY_CODE":"US","PERIAPSIS":"546.037","OBJECT_ID":"2021-021G","FILE":"3100831","APOAPSIS":"548.406","TLE_LINE2":"2 47866  53.0553 168.8688 0001710  81.9849 278.1334 15.06397419 25973","EPHEMERIS_TYPE":"0","MEAN_ANOMALY":"278.1334"}];
